{"spkid": "50557220", "covariance": {"epoch": "2458969.5", "elements": [{"label": "e", "name": "e", "sigma": 1.01131083076709e-06, "units": null, "title": "eccentricity", "value": ".5235274468029203"}, {"name": "q", "sigma": 1.25255549639712e-06, "units": "au", "value": ".6130015387837737", "title": "perihelion distance", "label": "q"}, {"label": "tp", "name": "tp", "sigma": 4.59977296145364e-05, "title": "time of perihelion passage", "value": "2458887.862045235283", "units": "TDB"}, {"sigma": 0.000253265008669721, "name": "om", "units": "deg", "title": "longitude of the ascending node", "value": "132.2010797687287", "label": "node"}, {"label": "peri", "sigma": 0.000259993094293806, "name": "w", "title": "argument of perihelion", "value": "129.1811566911843", "units": "deg"}, {"label": "i", "sigma": 1.07323526029805e-05, "name": "i", "units": "deg", "title": "inclination", "value": "2.698858330575659"}], "data": [["1.022749596426816E-12", "-1.266720391509205E-12", "-4.494658892127124E-11", "-4.331433826514506E-11", "-7.709434583509064E-11", "5.31912407227761E-12"], ["-1.266720391509205E-12", "1.568895271554632E-12", "5.565719458583665E-11", "5.365699157866605E-11", "9.5472644680471E-11", "-6.58703365983228E-12"], ["-4.494658892127124E-11", "5.565719458583665E-11", "2.115791129692001E-9", "2.374304627344816E-9", "2.996188643001833E-9", "-2.572452102693269E-10"], ["-4.331433826514506E-11", "5.365699157866605E-11", "2.374304627344816E-9", "6.414316461647405E-8", "-5.87557086551584E-8", "1.845027249820385E-9"], ["-7.709434583509064E-11", "9.5472644680471E-11", "2.996188643001833E-9", "-5.87557086551584E-8", "6.759640908046811E-8", "-2.483377862235386E-9"], ["5.31912407227761E-12", "-6.58703365983228E-12", "-2.572452102693269E-10", "1.845027249820385E-9", "-2.483377862235386E-9", "1.151833923947033E-10"]], "labels": ["e", "q", "tp", "node", "peri", "i"]}, "elements": [{"value": ".5232223483925931", "title": "eccentricity", "units": null, "name": "e", "sigma": "9.5345E-7", "label": "e"}, {"label": "a", "name": "a", "sigma": "1.1042E-7", "units": "au", "title": "semi-major axis", "value": "1.285024122531425"}, {"label": "q", "title": "perihelion distance", "value": ".6126707833994015", "units": "au", "sigma": "1.2778E-6", "name": "q"}, {"label": "i", "name": "i", "sigma": "1.0812E-5", "units": "deg", "value": "2.695505863924438", "title": "inclination; angle with respect to x-y ecliptic plane"}, {"units": "deg", "value": "132.0555274291452", "title": "longitude of the ascending node", "sigma": ".00025239", "name": "om", "label": "node"}, {"title": "argument of perihelion", "value": "129.3507083844589", "units": "deg", "name": "w", "sigma": ".00025973", "label": "peri"}, {"title": "mean anomaly", "value": "122.5693074927411", "units": "deg", "name": "ma", "sigma": ".00012999", "label": "M"}, {"label": "tp", "name": "tp", "sigma": ".00021545", "units": "TDB", "title": "time of perihelion passage", "value": "2461019.347396937228"}, {"label": "period", "name": "per", "sigma": "6.8577E-5", "units": "d", "value": "532.0658037205626", "title": "sidereal orbital period"}, {"units": "deg/d", "value": ".6766080388603015", "title": "mean motion", "name": "n", "sigma": "8.7207E-8", "label": "n"}, {"label": "Q", "title": "aphelion distance", "value": "1.957377461663448", "units": "au", "name": "ad", "sigma": "1.6819E-7"}], "epoch": "2461200.5"}